STARLINK-5566           
1 56133U 23046AT  26036.84639671  .00000249  00000+0  33508-4 0  9991
2 56133  43.0061 318.8450 0001350 261.3316  98.7374 15.02536988157428
STARLINK-5564           
1 56134U 23046AU  26036.19937942  .00000021  00000+0  16649-4 0  9997
2 56134  43.0094 322.5899 0001816 250.1172 109.9474 15.02536840157329
STARLINK-5489           
1 56136U 23046AW  26036.19494141 -.00000545  00000+0 -25309-4 0  9994
2 56136  43.0019 322.5670 0000987 276.6216  83.4514 15.02534098157329
STARLINK-5090           
1 56137U 23046AX  26036.17274060 -.00000240  00000+0 -26914-5 0  9995
2 56137  43.0047 322.3948 0000860 274.6780  85.3964 15.02534075157326
STARLINK-4774           
1 56138U 23046AY  26036.78657432  .00001635  00000+0  13604-3 0  9998
2 56138  43.0041 319.2614 0001263 272.5113  87.5585 15.02538902157417
STARLINK-5375           
1 56140U 23046BA  26036.78435503  .00000168  00000+0  27549-4 0  9998
2 56140  43.0043 319.2457 0001588 279.7174  80.3489 15.02535226157413
STARLINK-5377           
1 56141U 23046BB  26036.17162969 -.00000295  00000+0 -67494-5 0  9992
2 56141  43.0042 322.3837 0001013 265.6923  94.3803 15.02535582157329
STARLINK-5376           
1 56142U 23046BC  26036.84750468  .00000023  00000+0  16803-4 0  9998
2 56142  43.0049 318.8545 0001214 268.4662  91.6042 15.02539151157429
STARLINK-5016           
1 56143U 23046BD  26036.83085684  .00000113  00000+0  23420-4 0  9992
2 56143  43.0048 318.7332 0001417 266.1718  93.8962 15.02534549157425
STARLINK-5374           
1 56144U 23046BE  26036.51179050 -.00000143  00000+0  44939-5 0  9992
2 56144  43.0011 320.6376 0001433 257.6959 102.3723 15.02532636157376
STARLINK-5111           
1 56146U 23046BG  26036.50068732  .00001429  00000+0  12079-3 0  9992
2 56146  43.0035 320.5516 0001042 265.0943  94.9781 15.02539675157371
STARLINK-5140           
1 56147U 23046BH  26036.72430630  .00000776  00000+0  72525-4 0  9994
2 56147  43.0018 281.4244 0001117 271.0501  89.0214 15.02539795157847
STARLINK-5089           
1 56148U 23046BJ  26036.66113181  .00002395  00000+0  19221-3 0  9999
2 56148  43.0019 281.8122 0001005 287.8309  72.2424 15.02557087157835
STARLINK-30107          
1 56287U 23056B   26036.61832913  .00001549  00000+0  65803-4 0  9998
2 56287  43.0022  12.2694 0001002 276.1673  83.9065 15.27578500155394
STARLINK-30106          
1 56288U 23056C   26036.02732133  .00002070  00000+0  16829-3 0  9990
2 56288  43.0047  27.5051 0001314 277.8397  82.2296 15.02535928155113
STARLINK-30095          
1 56289U 23056D   26036.58960125  .00000082  00000+0  21123-4 0  9991
2 56289  43.0046 358.6892 0001050 275.6804  84.3919 15.02541663155499
STARLINK-30103          
1 56290U 23056E   26036.68876470  .00001654  00000+0  13746-3 0  9990
2 56290  43.0051  23.8700 0001314 260.0137 100.0557 15.02542309155218
