[{"OBJECT_NAME":"STARLINK-5566","OBJECT_ID":"2023-046AT","EPOCH":"2026-02-05T20:18:48.675744","MEAN_MOTION":15.02536988,"ECCENTRICITY":0.000135,"INCLINATION":43.0061,"RA_OF_ASC_NODE":318.845,"ARG_OF_PERICENTER":261.3316,"MEAN_ANOMALY":98.7374,"EPHEMERIS_TYPE":0,"CLASSIFICATION_TYPE":"U","NORAD_CAT_ID":56133,"ELEMENT_SET_NO":999,"REV_AT_EPOCH":15742,"BSTAR":3.3508e-5,"MEAN_MOTION_DOT":2.49e-6,"MEAN_MOTION_DDOT":0},{"OBJECT_NAME":"STARLINK-5564","OBJECT_ID":"2023-046AU","EPOCH":"2026-02-05T04:47:06.381888","MEAN_MOTION":15.0253684,"ECCENTRICITY":0.0001816,"INCLINATION":43.0094,"RA_OF_ASC_NODE":322.5899,"ARG_OF_PERICENTER":250.1172,"MEAN_ANOMALY":109.9474,"EPHEMERIS_TYPE":0,"CLASSIFICATION_TYPE":"U","NORAD_CAT_ID":56134,"ELEMENT_SET_NO":999,"REV_AT_EPOCH":15732,"BSTAR":1.6649e-5,"MEAN_MOTION_DOT":2.1e-7,"MEAN_MOTION_DDOT":0},{"OBJECT_NAME":"STARLINK-5489","OBJECT_ID":"2023-046AW","EPOCH":"2026-02-05T04:40:42.937824","MEAN_MOTION":15.02534098,"ECCENTRICITY":9.87e-5,"INCLINATION":43.0019,"RA_OF_ASC_NODE":322.567,"ARG_OF_PERICENTER":276.6216,"MEAN_ANOMALY":83.4514,"EPHEMERIS_TYPE":0,"CLASSIFICATION_TYPE":"U","NORAD_CAT_ID":56136,"ELEMENT_SET_NO":999,"REV_AT_EPOCH":15732,"BSTAR":-2.5309e-5,"MEAN_MOTION_DOT":-5.45e-6,"MEAN_MOTION_DDOT":0},{"OBJECT_NAME":"STARLINK-5090","OBJECT_ID":"2023-046AX","EPOCH":"2026-02-05T04:08:44.787840","MEAN_MOTION":15.02534075,"ECCENTRICITY":8.608e-5,"INCLINATION":43.0047,"RA_OF_ASC_NODE":322.3948,"ARG_OF_PERICENTER":274.678,"MEAN_ANOMALY":85.3964,"EPHEMERIS_TYPE":0,"CLASSIFICATION_TYPE":"U","NORAD_CAT_ID":56137,"ELEMENT_SET_NO":999,"REV_AT_EPOCH":15732,"BSTAR":-2.691415e-6,"MEAN_MOTION_DOT":-2.4e-6,"MEAN_MOTION_DDOT":0},{"OBJECT_NAME":"STARLINK-4774","OBJECT_ID":"2023-046AY","EPOCH":"2026-02-05T18:52:40.021248","MEAN_MOTION":15.02538902,"ECCENTRICITY":0.0001263,"INCLINATION":43.0041,"RA_OF_ASC_NODE":319.2614,"ARG_OF_PERICENTER":272.5113,"MEAN_ANOMALY":87.5585,"EPHEMERIS_TYPE":0,"CLASSIFICATION_TYPE":"U","NORAD_CAT_ID":56138,"ELEMENT_SET_NO":999,"REV_AT_EPOCH":15741,"BSTAR":0.00013604,"MEAN_MOTION_DOT":1.635e-5,"MEAN_MOTION_DDOT":0},{"OBJECT_NAME":"STARLINK-5375","OBJECT_ID":"2023-046BA","EPOCH":"2026-02-05T18:49:28.274592","MEAN_MOTION":15.02535226,"ECCENTRICITY":0.0001588,"INCLINATION":43.0043,"RA_OF_ASC_NODE":319.2457,"ARG_OF_PERICENTER":279.7174,"MEAN_ANOMALY":80.3489,"EPHEMERIS_TYPE":0,"CLASSIFICATION_TYPE":"U","NORAD_CAT_ID":56140,"ELEMENT_SET_NO":999,"REV_AT_EPOCH":15741,"BSTAR":2.7549e-5,"MEAN_MOTION_DOT":1.68e-6,"MEAN_MOTION_DDOT":0},{"OBJECT_NAME":"STARLINK-5377","OBJECT_ID":"2023-046BB","EPOCH":"2026-02-05T04:07:08.805216","MEAN_MOTION":15.02535582,"ECCENTRICITY":0.00010139,"INCLINATION":43.0042,"RA_OF_ASC_NODE":322.3837,"ARG_OF_PERICENTER":265.6923,"MEAN_ANOMALY":94.3803,"EPHEMERIS_TYPE":0,"CLASSIFICATION_TYPE":"U","NORAD_CAT_ID":56141,"ELEMENT_SET_NO":999,"REV_AT_EPOCH":15732,"BSTAR":-6.749384e-6,"MEAN_MOTION_DOT":-2.95e-6,"MEAN_MOTION_DDOT":0},{"OBJECT_NAME":"STARLINK-5376","OBJECT_ID":"2023-046BC","EPOCH":"2026-02-05T20:20:24.404352","MEAN_MOTION":15.02539151,"ECCENTRICITY":0.0001214,"INCLINATION":43.0049,"RA_OF_ASC_NODE":318.8545,"ARG_OF_PERICENTER":268.4662,"MEAN_ANOMALY":91.6042,"EPHEMERIS_TYPE":0,"CLASSIFICATION_TYPE":"U","NORAD_CAT_ID":56142,"ELEMENT_SET_NO":999,"REV_AT_EPOCH":15742,"BSTAR":1.6803e-5,"MEAN_MOTION_DOT":2.3e-7,"MEAN_MOTION_DDOT":0},{"OBJECT_NAME":"STARLINK-5016","OBJECT_ID":"2023-046BD","EPOCH":"2026-02-05T19:56:26.030976","MEAN_MOTION":15.02534549,"ECCENTRICITY":0.0001417,"INCLINATION":43.0048,"RA_OF_ASC_NODE":318.7332,"ARG_OF_PERICENTER":266.1718,"MEAN_ANOMALY":93.8962,"EPHEMERIS_TYPE":0,"CLASSIFICATION_TYPE":"U","NORAD_CAT_ID":56143,"ELEMENT_SET_NO":999,"REV_AT_EPOCH":15742,"BSTAR":2.342e-5,"MEAN_MOTION_DOT":1.13e-6,"MEAN_MOTION_DDOT":0},{"OBJECT_NAME":"STARLINK-5374","OBJECT_ID":"2023-046BE","EPOCH":"2026-02-05T12:16:58.699200","MEAN_MOTION":15.02532636,"ECCENTRICITY":0.0001433,"INCLINATION":43.0011,"RA_OF_ASC_NODE":320.6376,"ARG_OF_PERICENTER":257.6959,"MEAN_ANOMALY":102.3723,"EPHEMERIS_TYPE":0,"CLASSIFICATION_TYPE":"U","NORAD_CAT_ID":56144,"ELEMENT_SET_NO":999,"REV_AT_EPOCH":15737,"BSTAR":4.4939e-6,"MEAN_MOTION_DOT":-1.43e-6,"MEAN_MOTION_DDOT":0},{"OBJECT_NAME":"STARLINK-5111","OBJECT_ID":"2023-046BG","EPOCH":"2026-02-05T12:00:59.384448","MEAN_MOTION":15.02539675,"ECCENTRICITY":0.00010429,"INCLINATION":43.0035,"RA_OF_ASC_NODE":320.5516,"ARG_OF_PERICENTER":265.0943,"MEAN_ANOMALY":94.9781,"EPHEMERIS_TYPE":0,"CLASSIFICATION_TYPE":"U","NORAD_CAT_ID":56146,"ELEMENT_SET_NO":999,"REV_AT_EPOCH":15737,"BSTAR":0.00012079071,"MEAN_MOTION_DOT":1.429e-5,"MEAN_MOTION_DDOT":0},{"OBJECT_NAME":"STARLINK-5140","OBJECT_ID":"2023-046BH","EPOCH":"2026-02-05T17:23:00.064320","MEAN_MOTION":15.02539795,"ECCENTRICITY":0.0001117,"INCLINATION":43.0018,"RA_OF_ASC_NODE":281.4244,"ARG_OF_PERICENTER":271.0501,"MEAN_ANOMALY":89.0214,"EPHEMERIS_TYPE":0,"CLASSIFICATION_TYPE":"U","NORAD_CAT_ID":56147,"ELEMENT_SET_NO":999,"REV_AT_EPOCH":15784,"BSTAR":7.2525e-5,"MEAN_MOTION_DOT":7.76e-6,"MEAN_MOTION_DDOT":0},{"OBJECT_NAME":"STARLINK-5089","OBJECT_ID":"2023-046BJ","EPOCH":"2026-02-05T15:52:01.788384","MEAN_MOTION":15.02557087,"ECCENTRICITY":0.0001005,"INCLINATION":43.0019,"RA_OF_ASC_NODE":281.8122,"ARG_OF_PERICENTER":287.8309,"MEAN_ANOMALY":72.2424,"EPHEMERIS_TYPE":0,"CLASSIFICATION_TYPE":"U","NORAD_CAT_ID":56148,"ELEMENT_SET_NO":999,"REV_AT_EPOCH":15783,"BSTAR":0.00019221,"MEAN_MOTION_DOT":2.395e-5,"MEAN_MOTION_DDOT":0},{"OBJECT_NAME":"STARLINK-30107","OBJECT_ID":"2023-056B","EPOCH":"2026-02-05T14:50:23.636832","MEAN_MOTION":15.275785,"ECCENTRICITY":0.0001002,"INCLINATION":43.0022,"RA_OF_ASC_NODE":12.2694,"ARG_OF_PERICENTER":276.1673,"MEAN_ANOMALY":83.9065,"EPHEMERIS_TYPE":0,"CLASSIFICATION_TYPE":"U","NORAD_CAT_ID":56287,"ELEMENT_SET_NO":999,"REV_AT_EPOCH":15539,"BSTAR":6.5803e-5,"MEAN_MOTION_DOT":1.549e-5,"MEAN_MOTION_DDOT":0},{"OBJECT_NAME":"STARLINK-30106","OBJECT_ID":"2023-056C","EPOCH":"2026-02-05T00:39:20.562912","MEAN_MOTION":15.02535928,"ECCENTRICITY":0.00013144,"INCLINATION":43.0047,"RA_OF_ASC_NODE":27.5051,"ARG_OF_PERICENTER":277.8397,"MEAN_ANOMALY":82.2296,"EPHEMERIS_TYPE":0,"CLASSIFICATION_TYPE":"U","NORAD_CAT_ID":56288,"ELEMENT_SET_NO":999,"REV_AT_EPOCH":15511,"BSTAR":0.00016828734,"MEAN_MOTION_DOT":2.07e-5,"MEAN_MOTION_DDOT":0},{"OBJECT_NAME":"STARLINK-30095","OBJECT_ID":"2023-056D","EPOCH":"2026-02-05T14:09:01.548000","MEAN_MOTION":15.02541663,"ECCENTRICITY":0.000105,"INCLINATION":43.0046,"RA_OF_ASC_NODE":358.6892,"ARG_OF_PERICENTER":275.6804,"MEAN_ANOMALY":84.3919,"EPHEMERIS_TYPE":0,"CLASSIFICATION_TYPE":"U","NORAD_CAT_ID":56289,"ELEMENT_SET_NO":999,"REV_AT_EPOCH":15549,"BSTAR":2.1123e-5,"MEAN_MOTION_DOT":8.2e-7,"MEAN_MOTION_DDOT":0},{"OBJECT_NAME":"STARLINK-30103","OBJECT_ID":"2023-056E","EPOCH":"2026-02-05T16:31:49.270080","MEAN_MOTION":15.02542309,"ECCENTRICITY":0.0001314,"INCLINATION":43.0051,"RA_OF_ASC_NODE":23.87,"ARG_OF_PERICENTER":260.0137,"MEAN_ANOMALY":100.0557,"EPHEMERIS_TYPE":0,"CLASSIFICATION_TYPE":"U","NORAD_CAT_ID":56290,"ELEMENT_SET_NO":999,"REV_AT_EPOCH":15521,"BSTAR":0.00013746,"MEAN_MOTION_DOT":1.654e-5,"MEAN_MOTION_DDOT":0}]
